[{"OBJECT_NAME":"CSTP 1.2 (STC 1.2)","OBJECT_ID":"2023-091W","EPOCH":"2026-03-09T23:12:27.821952","MEAN_MOTION":15.2718076,"ECCENTRICITY":0.00204388,"INCLINATION":97.5258,"RA_OF_ASC_NODE":134.3262,"ARG_OF_PERICENTER":84.9592,"MEAN_ANOMALY":275.3979,"EPHEMERIS_TYPE":0,"CLASSIFICATION_TYPE":"U","NORAD_CAT_ID":57186,"ELEMENT_SET_NO":999,"REV_AT_EPOCH":14930,"BSTAR":0.00043035718,"MEAN_MOTION_DOT":0.00011466,"MEAN_MOTION_DDOT":0},{"OBJECT_NAME":"STARLINK-31681","OBJECT_ID":"2024-090S","EPOCH":"2026-03-09T13:55:11.656128","MEAN_MOTION":15.27594916,"ECCENTRICITY":0.000127,"INCLINATION":43.0005,"RA_OF_ASC_NODE":177.1655,"ARG_OF_PERICENTER":261.5007,"MEAN_ANOMALY":98.5701,"EPHEMERIS_TYPE":0,"CLASSIFICATION_TYPE":"U","NORAD_CAT_ID":59746,"ELEMENT_SET_NO":999,"REV_AT_EPOCH":10350,"BSTAR":-2.527e-5,"MEAN_MOTION_DOT":-9.58e-6,"MEAN_MOTION_DDOT":0}]
